NUSAT-48 (HENRIETTA LE*)
1 60498U 24149AG  26068.80506098  .00012988  00000+0  45212-3 0  9999
2 60498  97.3923 150.8264 0002754 263.3026  96.7901 15.29812597 86946
STARLINK-34635          
1 64761U 25147G   26068.75174971  .00022343  00000+0  76430-3 0  9992
2 64761  53.1591 242.2950 0000686  72.7511 287.3564 15.30196292 38764
